NORAD_CAT_ID,OBJECT_NAME,OBJECT_TYPE,EPOCH,MEAN_MOTION,ECCENTRICITY,INCLINATION,RA_OF_ASC_NODE,ARG_OF_PERICENTER,MEAN_ANOMALY,BSTAR,MEAN_MOTION_DOT,MEAN_MOTION_DDOT,TLE_LINE0,TLE_LINE1,TLE_LINE2,SEMIMAJOR_AXIS,PERIOD,APOGEE,PERIGEE,DECAYED
51125.0,STARLINK-3387,PAYLOAD,2022-03-18 06:00:00,15.58026428,0.0001281,53.2173,346.8802,54.2707,257.0413,-0.010187,-0.00712766,0.0,0 STARLINK-3387,1 51125U 22005X   22077.25001157 -.00712766  00000-0 -10187-1 0  9991,2 51125  53.2173 346.8802 0001281  54.2707 257.0413 15.58026428 10470,6771.505999999999,92.425,394.239,392.504,0.0
51125.0,STARLINK-3387,PAYLOAD,2022-03-18 14:00:01,15.57514868,0.0001443,53.2174,345.2636,37.5024,344.1983,-0.010365,-0.00711475,0.0,0 STARLINK-3387,1 51125U 22005X   22077.58334491 -.00711475  00000-0 -10365-1 0  9991,2 51125  53.2174 345.2636 0001443  37.5024 344.1983 15.57514868  3713,6772.989000000001,92.455,395.831,393.877,0.0
51125.0,STARLINK-3387,PAYLOAD,2022-03-18 22:00:00,15.5700655,0.0001653,53.2174,343.6516,36.1569,55.316,-0.010605,-0.00713964,0.0,0 STARLINK-3387,1 51125U 22005X   22077.91667824 -.00713964  00000-0 -10605-1 0  9999,2 51125  53.2174 343.6516 0001653  36.1569  55.3160 15.57006550  3761,6774.4630000000025,92.485,397.448,395.208,0.0
51125.0,STARLINK-3387,PAYLOAD,2022-03-19 02:00:01,15.56752919,0.0001671,53.2174,342.8461,38.1916,268.0021,-0.010743,-0.007162,0.0,0 STARLINK-3387,1 51125U 22005X   22078.08335648 -.00716200  00000-0 -10743-1 0  9993,2 51125  53.2174 342.8461 0001671  38.1916 268.0021 15.56752919 10605,6775.199000000001,92.5,398.196,395.932,0.0
51125.0,STARLINK-3387,PAYLOAD,2022-03-19 14:00:01,15.55985461,0.0001529,53.2173,340.4271,47.1389,182.0437,-0.010973,-0.00711251,0.0,0 STARLINK-3387,1 51125U 22005X   22078.58334491 -.00711251  00000-0 -10973-1 0  9999,2 51125  53.2173 340.4271 0001529  47.1389 182.0437 15.55985461  3699,6777.427,92.546,400.328,398.255,0.0
51125.0,STARLINK-3387,PAYLOAD,2022-03-19 22:00:01,15.55476357,0.0001535,53.2174,338.8188,44.2257,252.9559,-0.01121,-0.00712834,0.0,0 STARLINK-3387,1 51125U 22005X   22078.91668981 -.00712834  00000-0 -11210-1 0  9993,2 51125  53.2174 338.8188 0001535  44.2257 252.9559 15.55476357  3722,6778.905,92.576,401.811,399.73,0.0
51125.0,STARLINK-3387,PAYLOAD,2022-03-20 06:00:00,15.54967394,0.0001272,53.2172,337.211,48.6218,315.8164,-0.011436,-0.00713501,0.0,0 STARLINK-3387,1 51125U 22005X   22079.25001157 -.00713501  00000-0 -11436-1 0  9999,2 51125  53.2172 337.2110 0001272  48.6218 315.8164 15.54967394 10781,6780.384,92.606,403.112,401.387,0.0
51125.0,STARLINK-3387,PAYLOAD,2022-03-20 14:00:01,15.54455943,0.0001419999999999,53.2174,335.6018,42.1015,29.0486,-0.011637,-0.00712572,0.0,0 STARLINK-3387,1 51125U 22005X   22079.58334491 -.00712572  00000-0 -11637-1 0  9995,2 51125  53.2174 335.6018 0001420  42.1015  29.0486 15.54455943  3685,6781.871999999999,92.637,404.7,402.774,0.0
51125.0,STARLINK-3387,PAYLOAD,2022-03-20 22:00:01,15.53945496,0.0001801,53.2174,333.9973,35.9293,101.3817,-0.011838,-0.00711566,0.0,0 STARLINK-3387,1 51125U 22005X   22079.91668981 -.00711566  00000-0 -11838-1 0  9991,2 51125  53.2174 333.9973 0001801  35.9293 101.3817 15.53945496  3719,6783.357,92.667,406.443,404.0,0.0
51125.0,STARLINK-3387,PAYLOAD,2022-03-21 06:00:00,15.53437925,0.0001505,53.2171,332.3927,50.4987,152.2305,-0.012128,-0.00715176,0.0,0 STARLINK-3387,1 51125U 22005X   22080.25001157 -.00715176  00000-0 -12128-1 0  9990,2 51125  53.2171 332.3927 0001505  50.4987 152.2305 15.53437925 10944,6784.834,92.698,407.72,405.67800000000005,0.0
51125.0,STARLINK-3387,PAYLOAD,2022-03-21 14:00:01,15.52925536,0.0001475,53.2174,330.7873,48.9481,218.6542,-0.012279,-0.00711036,0.0,0 STARLINK-3387,1 51125U 22005X   22080.58334491 -.00711036  00000-0 -12279-1 0  9994,2 51125  53.2174 330.7873 0001475  48.9481 218.6542 15.52925536  3699,6786.3269999999975,92.728,409.193,407.191,0.0
51125.0,STARLINK-3387,PAYLOAD,2022-03-21 22:00:00,15.52416749,0.000159,53.2174,329.1867,38.6634,293.196,-0.012542,-0.00712816,0.0,0 STARLINK-3387,1 51125U 22005X   22080.91667824 -.00712816  00000-0 -12542-1 0  9990,2 51125  53.2174 329.1867 0001590  38.6634 293.1960 15.52416749  3691,6787.809,92.759,410.753,408.595,0.0
51125.0,STARLINK-3387,PAYLOAD,2022-03-22 12:00:00,15.51522518,0.0001416,53.2173,326.3842,40.401,312.4378,-0.012898,-0.00709949,0.0,0 STARLINK-3387,1 51125U 22005X   22081.50001157 -.00709949  00000-0 -12898-1 0  9994,2 51125  53.2173 326.3842 0001416  40.4010 312.4378 15.51522518 11135,6790.417,92.812,413.244,411.321,0.0
51125.0,STARLINK-3387,PAYLOAD,2022-03-22 14:00:01,15.51396651,0.0001571,53.2172,325.9842,38.7424,59.7969,-0.013021,-0.00722336,0.0,0 STARLINK-3387,1 51125U 22005X   22081.58334491 -.00722336  00000-0 -13021-1 0  9996,2 51125  53.2172 325.9842 0001571  38.7424  59.7969 15.51396651  3720,6790.784000000002,92.82,413.716,411.583,0.0
51125.0,STARLINK-3387,PAYLOAD,2022-03-22 22:00:01,15.50885485,0.0001932,53.2171,324.3871,34.8957,126.1277,-0.013212,-0.00719861,0.0,0 STARLINK-3387,1 51125U 22005X   22081.91668981 -.00719861  00000-0 -13212-1 0  9998,2 51125  53.2171 324.3871 0001932  34.8957 126.1277 15.50885485  3709,6792.276,92.85,415.454,412.829,0.0
51125.0,STARLINK-3387,PAYLOAD,2022-03-23 14:00:01,15.49865977,0.000147,53.2173,321.192,48.9293,235.0321,-0.0137169999999999,-0.00720527,0.0,0 STARLINK-3387,1 51125U 22005X   22082.58334491 -.00720527  00000-0 -13717-1 0  9999,2 51125  53.2173 321.1920 0001470  48.9293 235.0321 15.49865977 11304,6795.255,92.911,418.119,416.121,0.0
51125.0,STARLINK-3387,PAYLOAD,2022-03-23 22:00:00,15.49246928,0.0001684,53.2174,319.6,41.7851,302.7759,-0.0077768,-0.00410151,0.0,0 STARLINK-3387,1 51125U 22005X   22082.91667824 -.00410151  00000-0 -77768-2 0  9991,2 51125  53.2174 319.6000 0001684  41.7851 302.7759 15.49246928  3716,6797.065,92.948,420.074,417.785,0.0
51125.0,STARLINK-3387,PAYLOAD,2022-03-24 06:00:00,15.4894913,0.0001302,53.2173,318.008,55.4504,349.0731,-3.0519000000000004e-05,-2.122e-05,0.0,0 STARLINK-3387,1 51125U 22005X   22083.25001157 -.00002122  00000-0 -30519-4 0  9990,2 51125  53.2173 318.0080 0001302  55.4504 349.0731 15.48949130 11403,6797.936,92.966,420.686,418.916,0.0
51125.0,STARLINK-3387,PAYLOAD,2022-03-24 14:00:01,15.49049879,0.0001758,53.216,316.4212,48.6819,55.714,-0.0043275,-0.00232005,0.0,0 STARLINK-3387,1 51125U 22005X   22083.58334491 -.00232005  00000-0 -43275-2 0  9992,2 51125  53.2160 316.4212 0001758  48.6819  55.7140 15.49049879  3684,6797.641,92.96,420.701,418.311,0.0
51125.0,STARLINK-3387,PAYLOAD,2022-03-24 22:00:00,15.49095567,0.000176,53.2148,314.8365,43.9222,120.5089,0.00085005,0.00046756,0.0,0 STARLINK-3387,1 51125U 22005X   22083.91667824  .00046756  00000-0  85005-3 0  9990,2 51125  53.2148 314.8365 0001760  43.9222 120.5089 15.49095567 11519,6797.5080000000025,92.957,420.569,418.176,0.0
51125.0,STARLINK-3387,PAYLOAD,2022-03-25 12:00:00,15.49133512,0.0001439,53.2142,312.05,41.2082,138.2198,-0.00059103,-0.00032977,0.0,0 STARLINK-3387,1 51125U 22005X   22084.50001157 -.00032977  00000-0 -59103-3 0  9999,2 51125  53.2142 312.0500 0001439  41.2082 138.2198 15.49133512 11602,6797.397,92.955,420.24,418.283,0.0
51125.0,STARLINK-3387,PAYLOAD,2022-03-25 14:00:01,15.49141795,0.0001394,53.2145,311.6521,42.599,241.8274,-0.0012237,-0.00067522,0.0,0 STARLINK-3387,1 51125U 22005X   22084.58334491 -.00067522  00000-0 -12237-2 0  9997,2 51125  53.2145 311.6521 0001394  42.5990 241.8274 15.49141795  3682,6797.371999999999,92.955,420.185,418.29,0.0
51125.0,STARLINK-3387,PAYLOAD,2022-03-25 20:00:01,15.49178513,0.0001466,53.2145,310.4602,35.62300000000001,203.8067,-0.0064148,-0.00340544,0.0,0 STARLINK-3387,1 51125U 22005X   22084.83334491 -.00340544  00000-0 -64148-2 0  9991,2 51125  53.2145 310.4602 0001466  35.6230 203.8067 15.49178513 11651,6797.265,92.952,420.126,418.133,0.0
51125.0,STARLINK-3387,PAYLOAD,2022-03-25 22:00:01,15.49139741,0.0001529,53.2145,310.0627,32.505,311.9893,-0.0071448,-0.00376996,0.0,0 STARLINK-3387,1 51125U 22005X   22084.91668981 -.00376996  00000-0 -71448-2 0  9995,2 51125  53.2145 310.0627 0001529  32.5050 311.9893 15.49139741  3705,6797.378000000002,92.955,420.283,418.204,0.0
51125.0,STARLINK-3387,PAYLOAD,2022-03-26 12:00:00,15.48737961,0.0001558,53.2144,307.2768,43.4597,315.5374,0.0021277,0.00117293,0.0,0 STARLINK-3387,1 51125U 22005X   22085.50001157  .00117293  00000-0  21277-2 0  9993,2 51125  53.2144 307.2768 0001558  43.4597 315.5374 15.48737961 11752,6798.554,92.979,421.478,419.36,0.0
51125.0,STARLINK-3387,PAYLOAD,2022-03-26 14:00:01,15.48765765,0.000157,53.2146,306.8792,45.548,58.3336,0.0017472999999999,0.00096073,0.0,0 STARLINK-3387,1 51125U 22005X   22085.58334491  .00096073  00000-0  17473-2 0  9996,2 51125  53.2146 306.8792 0001570  45.5480  58.3336 15.48765765  3668,6798.473000000001,92.977,421.405,419.27,0.0
51125.0,STARLINK-3387,PAYLOAD,2022-03-26 20:00:01,15.48828836,0.0001754999999999,53.2147,305.688,40.3175,18.254,0.00017196,8.968e-05,0.0,0 STARLINK-3387,1 51125U 22005X   22085.83334491  .00008968  00000-0  17196-3 0  9993,2 51125  53.2147 305.6880 0001755  40.3175  18.2540 15.48828836 11809,6798.288000000001,92.973,421.346,418.96,0.0
51125.0,STARLINK-3387,PAYLOAD,2022-03-26 22:00:00,15.48830892,0.0001815,53.2147,305.2908,39.1395,124.3421,0.00025679,0.00013622,0.0,0 STARLINK-3387,1 51125U 22005X   22085.91667824  .00013622  00000-0  25679-3 0  9999,2 51125  53.2147 305.2908 0001815  39.1395 124.3421 15.48830892  3693,6798.281999999997,92.973,421.381,418.913,0.0
51125.0,STARLINK-3387,PAYLOAD,2022-03-27 14:00:01,15.48885789,0.0001659,53.2151,302.1074,40.9443,241.9035,0.0013009,0.0007149,0.0,0 STARLINK-3387,1 51125U 22005X   22086.58334491  .00071490  00000-0  13009-2 0  9994,2 51125  53.2151 302.1074 0001659  40.9443 241.9035 15.48885789 11925,6798.121,92.97,421.114,418.859,0.0
